CTC2_L_00218016-03
1 73776U 26648NL  26037.47792824  .00000000  00000+0  00000-0 0  9996
2 73776  85.0000 180.0000 0000000   0.0000   0.0000 14.33516502    15
CTC2_L_00218016-04
1 73777U 23580HF  26037.47792824  .00000000  00000+0  00000-0 0  9999
2 73777  85.0000 180.0000 0000000   0.0000  90.0000 14.33516502    15
CTC2_L_00218017-01
1 73778U 24179ZT  26037.47792824  .00000000  00000+0  00000-0 0  9995
2 73778  85.0000 192.0000 0000000   0.0000 192.0000 14.33516502    12
CTC2_L_00218017-02
1 73779U 23845GF  26037.47792824  .00000000  00000+0  00000-0 0  9995
2 73779  85.0000 192.0000 0000000   0.0000 282.0000 14.33516502    13
CTC2_L_00218017-03
1 73780U 25490WN  26037.47792824  .00000000  00000+0  00000-0 0  9995
2 73780  85.0000 192.0000 0000000   0.0000  12.0000 14.33516502    16
CTC2_L_00218017-04
1 73781U 26755FH  26037.47792824  .00000000  00000+0  00000-0 0  9991
2 73781  85.0000 192.0000 0000000   0.0000 102.0000 14.33516502    17
CTC2_L_00218018-01
1 73782U 25387KM  26037.47792824  .00000000  00000+0  00000-0 0  9992
2 73782  85.0000 204.0000 0000000   0.0000 204.0000 14.33516502    15
CTC2_L_00218018-02
1 73783U 23244UV  26037.47792824  .00000000  00000+0  00000-0 0  9993
2 73783  85.0000 204.0000 0000000   0.0000 294.0000 14.33516502    15
CTC2_L_00218018-03
1 73784U 22449YU  26037.47792824  .00000000  00000+0  00000-0 0  9990
2 73784  85.0000 204.0000 0000000   0.0000  24.0000 14.33516502    17
CTC2_L_00218018-04
1 73785U 25625Z   26037.47792824  .00000000  00000+0  00000-0 0  9990
2 73785  85.0000 204.0000 0000000   0.0000 114.0000 14.33516502    18
CTC2_L_00218019-01
1 73786U 24681IU  26037.47792824  .00000000  00000+0  00000-0 0  9992
2 73786  85.0000 216.0000 0000000   0.0000 216.0000 14.33516502    15
CTC2_L_00218019-02
1 73787U 25952MD  26037.47792824  .00000000  00000+0  00000-0 0  9995
2 73787  85.0000 216.0000 0000000   0.0000 306.0000 14.33516502    16
CTC2_L_00218019-03
1 73788U 24092JK  26037.47792824  .00000000  00000+0  00000-0 0  9990
2 73788  85.0000 216.0000 0000000   0.0000  36.0000 14.33516502    17
CTC2_L_00218019-04
1 73789U 23267MS  26037.47792824  .00000000  00000+0  00000-0 0  9994
2 73789  85.0000 216.0000 0000000   0.0000 126.0000 14.33516502    18
CTC2_L_00218020-01
1 73790U 23199PU  26037.47792824  .00000000  00000+0  00000-0 0  9990
2 73790  85.0000 228.0000 0000000   0.0000 228.0000 14.33516502    16
CTC2_L_00218020-02
1 73791U 25344HT  26037.47792824  .00000000  00000+0  00000-0 0  9995
2 73791  85.0000 228.0000 0000000   0.0000 318.0000 14.33516502    17
CTC2_L_00218020-03
1 73792U 25019KY  26037.47792824  .00000000  00000+0  00000-0 0  9995
2 73792  85.0000 228.0000 0000000   0.0000  48.0000 14.33516502    18
CTC2_L_00218020-04
1 73793U 25870WP  26037.47792824  .00000000  00000+0  00000-0 0  9991
2 73793  85.0000 228.0000 0000000   0.0000 138.0000 14.33516502    19
CTC2_L_00218021-01
1 73794U 25311SG  26037.47792824  .00000000  00000+0  00000-0 0  9992
2 73794  85.0000 240.0000 0000000   0.0000 240.0000 14.33516502    18
CTC2_L_00218021-02
1 73795U 26211AQ  26037.47792824  .00000000  00000+0  00000-0 0  9993
2 73795  85.0000 240.0000 0000000   0.0000 330.0000 14.33516502    19
CTC2_L_00218021-03
1 73796U 25847WE  26037.47792824  .00000000  00000+0  00000-0 0  9998
2 73796  85.0000 240.0000 0000000   0.0000  60.0000 14.33516502    10
CTC2_L_00218021-04
1 73797U 25465MU  26037.47792824  .00000000  00000+0  00000-0 0  9995
2 73797  85.0000 240.0000 0000000   0.0000 150.0000 14.33516502    11
CTC2_L_00218022-01
1 73798U 26665PC  26037.47792824  .00000000  00000+0  00000-0 0  9999
2 73798  85.0000 252.0000 0000000   0.0000 252.0000 14.33516502    18
CTC2_L_00218022-02
1 73799U 24375NH  26037.47792824  .00000000  00000+0  00000-0 0  9996
2 73799  85.0000 252.0000 0000000   0.0000 342.0000 14.33516502    19
CTC2_L_00218022-03
1 73800U 22683EI  26037.47792824  .00000000  00000+0  00000-0 0  9999
2 73800  85.0000 252.0000 0000000   0.0000  72.0000 14.33516502    12
CTC2_L_00218022-04
1 73801U 22208FR  26037.47792824  .00000000  00000+0  00000-0 0  9993
2 73801  85.0000 252.0000 0000000   0.0000 162.0000 14.33516502    13
CTC2_L_00218023-01
1 73802U 26104AL  26037.47792824  .00000000  00000+0  00000-0 0  9993
2 73802  85.0000 264.0000 0000000   0.0000 264.0000 14.33516502    10
CTC2_L_00218023-02
1 73803U 22689KS  26037.47792824  .00000000  00000+0  00000-0 0  9998
2 73803  85.0000 264.0000 0000000   0.0000 354.0000 14.33516502    11
CTC2_L_00218023-03
1 73804U 26165IM  26037.47792824  .00000000  00000+0  00000-0 0  9992
2 73804  85.0000 264.0000 0000000   0.0000  84.0000 14.33516502    12
CTC2_L_00218023-04
1 73805U 24396JF  26037.47792824  .00000000  00000+0  00000-0 0  9997
2 73805  85.0000 264.0000 0000000   0.0000 174.0000 14.33516502    13
CTC2_L_00218024-01
1 73806U 26167XK  26037.47792824  .00000000  00000+0  00000-0 0  9996
2 73806  85.0000 276.0000 0000000   0.0000 276.0000 14.33516502    10
CTC2_L_00218024-02
1 73807U 25680GI  26037.47792824  .00000000  00000+0  00000-0 0  9996
2 73807  85.0000 276.0000 0000000   0.0000   6.0000 14.33516502    12
CTC2_L_00218024-03
1 73808U 24397QZ  26037.47792824  .00000000  00000+0  00000-0 0  9991
2 73808  85.0000 276.0000 0000000   0.0000  96.0000 14.33516502    12
CTC2_L_00218024-04
1 73809U 24726SO  26037.47792824  .00000000  00000+0  00000-0 0  9998
2 73809  85.0000 276.0000 0000000   0.0000 186.0000 14.33516502    13
CTC2_L_00218025-01
1 73810U 26241II  26037.47792824  .00000000  00000+0  00000-0 0  9994
2 73810  85.0000 288.0000 0000000   0.0000 288.0000 14.33516502    11
CTC2_L_00218025-02
1 73811U 26292KB  26037.47792824  .00000000  00000+0  00000-0 0  9991
2 73811  85.0000 288.0000 0000000   0.0000  18.0000 14.33516502    13
CTC2_L_00218025-03
1 73812U 22710PO  26037.47792824  .00000000  00000+0  00000-0 0  9993
2 73812  85.0000 288.0000 0000000   0.0000 108.0000 14.33516502    14
CTC2_L_00218025-04
1 73813U 24608QZ  26037.47792824  .00000000  00000+0  00000-0 0  9992
2 73813  85.0000 288.0000 0000000   0.0000 198.0000 14.33516502    14
CTC2_L_00218026-01
1 73814U 26863DC  26037.47792824  .00000000  00000+0  00000-0 0  9998
2 73814  85.0000 300.0000 0000000   0.0000 300.0000 14.33516502    15
CTC2_L_00218026-02
1 73815U 25391XU  26037.47792824  .00000000  00000+0  00000-0 0  9994
2 73815  85.0000 300.0000 0000000   0.0000  30.0000 14.33516502    16
CTC2_L_00218026-03
1 73816U 22351YC  26037.47792824  .00000000  00000+0  00000-0 0  9998
2 73816  85.0000 300.0000 0000000   0.0000 120.0000 14.33516502    17
CTC2_L_00218026-04
1 73817U 25929GB  26037.47792824  .00000000  00000+0  00000-0 0  9993
2 73817  85.0000 300.0000 0000000   0.0000 210.0000 14.33516502    18
CTC2_L_00218027-01
1 73818U 23422QF  26037.47792824  .00000000  00000+0  00000-0 0  9990
2 73818  85.0000 312.0000 0000000   0.0000 312.0000 14.33516502    15
CTC2_L_00218027-02
1 73819U 26662SQ  26037.47792824  .00000000  00000+0  00000-0 0  9990
2 73819  85.0000 312.0000 0000000   0.0000  42.0000 14.33516502    16
CTC2_L_00218027-03
1 73820U 22465RC  26037.47792824  .00000000  00000+0  00000-0 0  9999
2 73820  85.0000 312.0000 0000000   0.0000 132.0000 14.33516502    18
CTC2_L_00218027-04
1 73821U 22540CN  26037.47792824  .00000000  00000+0  00000-0 0  9994
2 73821  85.0000 312.0000 0000000   0.0000 222.0000 14.33516502    19
CTC2_L_00218028-01
1 73822U 22485AW  26037.47792824  .00000000  00000+0  00000-0 0  9993
2 73822  85.0000 324.0000 0000000   0.0000 324.0000 14.33516502    16
CTC2_L_00218028-02
1 73823U 22076HA  26037.47792824  .00000000  00000+0  00000-0 0  9990
2 73823  85.0000 324.0000 0000000   0.0000  54.0000 14.33516502    17
CTC2_L_00218028-03
1 73824U 23900EB  26037.47792824  .00000000  00000+0  00000-0 0  9998
2 73824  85.0000 324.0000 0000000   0.0000 144.0000 14.33516502    18
CTC2_L_00218028-04
1 73825U 26679UW  26037.47792824  .00000000  00000+0  00000-0 0  9995
2 73825  85.0000 324.0000 0000000   0.0000 234.0000 14.33516502    19
CTC2_L_00218029-01
1 73826U 25728AY  26037.47792824  .00000000  00000+0  00000-0 0  9990
2 73826  85.0000 336.0000 0000000   0.0000 336.0000 14.33516502    16
CTC2_L_00218029-02
1 73827U 24208HG  26037.47792824  .00000000  00000+0  00000-0 0  9993
2 73827  85.0000 336.0000 0000000   0.0000  66.0000 14.33516502    17
CTC2_L_00218029-03
1 73828U 24726HQ  26037.47792824  .00000000  00000+0  00000-0 0  9999
2 73828  85.0000 336.0000 0000000   0.0000 156.0000 14.33516502    18
CTC2_L_00218029-04
1 73829U 25442SA  26037.47792824  .00000000  00000+0  00000-0 0  9996
2 73829  85.0000 336.0000 0000000   0.0000 246.0000 14.33516502    19
CTC2_L_00218030-01
1 73830U 24910EL  26037.47792824  .00000000  00000+0  00000-0 0  9997
2 73830  85.0000 348.0000 0000000   0.0000 348.0000 14.33516502    17
CTC2_L_00218030-02
1 73831U 25316EG  26037.47792824  .00000000  00000+0  00000-0 0  9999
2 73831  85.0000 348.0000 0000000   0.0000  78.0000 14.33516502    18
CTC2_L_00218030-03
1 73832U 22552HA  26037.47792824  .00000000  00000+0  00000-0 0  9999
2 73832  85.0000 348.0000 0000000   0.0000 168.0000 14.33516502    19
CTC2_L_00218030-04
1 73833U 22902YN  26037.47792824  .00000000  00000+0  00000-0 0  9999
2 73833  85.0000 348.0000 0000000   0.0000 258.0000 14.33516502    10
